0 FENGYUN 1C DEB
1 32331U 99025CXY 13281.39418497  .00001798  00000-0  10581-2 0  2633
2 32331 099.2118 343.8409 0047729 217.6345 142.2640 14.08795144319883
0 FENGYUN 1C DEB
1 32331U 99025CXY 13283.38276627  .00001837  00000-0  10806-2 0  2646
2 32331 099.2129 345.8756 0046935 214.2221 145.6193 14.08804173320162
0 FENGYUN 1C DEB
1 32331U 99025CXY 13285.37135751  .00001862  00000-0  10943-2 0  2650
2 32331 099.2106 347.8956 0046991 209.3664 150.5272 14.08812882320449
0 FENGYUN 1C DEB
1 32331U 99025CXY 13290.41381214  .00003078  00000-0  17883-2 0  2660
2 32331 099.2098 353.0506 0048989 193.2468 167.3843 14.08862425321158
0 FENGYUN 1C DEB
1 32331U 99025CXY 13293.39644889  .00003100  00000-0  17998-2 0  2674
2 32331 099.2123 356.1012 0049187 185.7386 174.3460 14.08881653321572
0 FENGYUN 1C DEB
1 32331U 99025CXY 13294.39068937  .00002366  00000-0  13840-2 0  2685
2 32331 099.2190 357.1515 0042980 184.9687 174.8943 14.08871915321711
